NORAD_CAT_ID,OBJECT_NAME,OBJECT_TYPE,EPOCH,MEAN_MOTION,ECCENTRICITY,INCLINATION,RA_OF_ASC_NODE,ARG_OF_PERICENTER,MEAN_ANOMALY,BSTAR,MEAN_MOTION_DOT,MEAN_MOTION_DDOT,TLE_LINE0,TLE_LINE1,TLE_LINE2,SEMIMAJOR_AXIS,PERIOD,APOGEE,PERIGEE,DECAYED
52703.0,STARLINK-4020,PAYLOAD,2024-01-19 00:51:00,15.08843785,0.000154,53.2173,38.6268,99.3088,260.8078,7.7292e-05,9.42e-06,0.0,0 STARLINK-4020,1 52703U 22053AZ  24019.03542631  .00000942  00000-0  77292-4 0  9995,2 52703  53.2173  38.6268 0001540  99.3088 260.8078 15.08843785 93035,6917.869,95.437,540.799,538.668,0.0
52703.0,STARLINK-4020,PAYLOAD,2024-01-19 08:47:56,15.08843296,0.0001643,53.2173,37.1391,104.6751,255.4423,6.6292e-05,7.67e-06,0.0,0 STARLINK-4020,1 52703U 22053AZ  24019.36662636  .00000767  00000-0  66292-4 0  9992,2 52703  53.2173  37.1391 0001643 104.6751 255.4423 15.08843296 92239,6917.87,95.437,540.872,538.599,0.0
52703.0,STARLINK-4020,PAYLOAD,2024-01-20 07:03:19,15.08849483,0.0001522,53.2182,32.9747,109.3323,250.7834,0.00013023,1.786e-05,0.0,0 STARLINK-4020,1 52703U 22053AZ  24020.29397884  .00001786  00000-0  13023-3 0  9991,2 52703  53.2182  32.9747 0001522 109.3323 250.7834 15.08849483 93228,6917.851,95.437,540.769,538.664,0.0
52703.0,STARLINK-4020,PAYLOAD,2024-01-21 03:43:21,15.08834958,0.000148,53.2175,29.1095,93.3857,266.7304,3.4497e-05,2.61e-06,0.0,0 STARLINK-4020,1 52703U 22053AZ  24021.15511004  .00000261  00000-0  34497-4 0  9995,2 52703  53.2175  29.1095 0001480  93.3857 266.7304 15.08834958 93355,6917.896,95.438,540.785,538.737,0.0
52703.0,STARLINK-4020,PAYLOAD,2024-01-21 06:54:07,15.0883669,0.0001482,53.2173,28.5144,82.2548,277.8613,7.886e-05,9.67e-06,0.0,0 STARLINK-4020,1 52703U 22053AZ  24021.28758866  .00000967  00000-0  78860-4 0  9993,2 52703  53.2173  28.5144 0001482  82.2548 277.8613 15.08836690 92526,6917.891,95.438,540.781,538.73,0.0
52703.0,STARLINK-4020,PAYLOAD,2024-01-21 10:04:53,15.08844785,0.0001612,53.2186,27.9172,101.9539,258.1634,1.8861e-05,1.2e-07,0.0,0 STARLINK-4020,1 52703U 22053AZ  24021.42006366  .00000012  00000-0  18861-4 0  9996,2 52703  53.2186  27.9172 0001612 101.9539 258.1634 15.08844785 93393,6917.866,95.437,540.846,538.616,0.0
52703.0,STARLINK-4020,PAYLOAD,2024-01-22 03:34:08,15.08838068,0.0001696,53.218,24.6459,114.214,245.903,-2.5496e-05,-6.94e-06,0.0,0 STARLINK-4020,1 52703U 22053AZ  24022.14870881 -.00000694  00000-0 -25496-4 0  9997,2 52703  53.2180  24.6459 0001696 114.2140 245.9030 15.08838068 93500,6917.886,95.438,540.925,538.578,0.0
52703.0,STARLINK-4020,PAYLOAD,2024-01-22 06:44:54,15.08840936,0.0001715,53.2186,24.0516,111.5731,248.5444,1.6741e-05,-2.2e-07,0.0,0 STARLINK-4020,1 52703U 22053AZ  24022.28118661 -.00000022  00000-0  16741-4 0  9990,2 52703  53.2186  24.0516 0001715 111.5731 248.5444 15.08840936 92674,6917.878,95.437,540.929,538.556,0.0
52703.0,STARLINK-4020,PAYLOAD,2024-01-23 06:35:41,15.08840698,0.0001675,53.2195,19.5879,103.8481,256.2697,5.3723e-05,5.67e-06,0.0,0 STARLINK-4020,1 52703U 22053AZ  24023.27478722  .00000567  00000-0  53723-4 0  9991,2 52703  53.2195  19.5879 0001675 103.8481 256.2697 15.08840698 93678,6917.878,95.438,540.902,538.585,0.0
52703.0,STARLINK-4020,PAYLOAD,2024-01-24 04:51:05,15.08839523,0.0001918,53.2202,15.43,111.1947,248.925,1.7822e-05,-5e-08,0.0,0 STARLINK-4020,1 52703U 22053AZ  24024.20215159 -.00000005  00000-0  17822-4 0  9996,2 52703  53.2202  15.4300 0001918 111.1947 248.9250 15.08839523 92969,6917.882,95.438,541.074,538.42,0.0
52703.0,STARLINK-4020,PAYLOAD,2024-01-25 03:06:29,15.08849572,0.0001847,53.2198,11.2647,118.0106,242.1074,2.9573e-05,1.83e-06,0.0,0 STARLINK-4020,1 52703U 22053AZ  24025.12950391  .00000183  00000-0  29573-4 0  9994,2 52703  53.2198  11.2647 0001847 118.0106 242.1074 15.08849572 93950,6917.851,95.437,540.994,538.438,0.0
52703.0,STARLINK-4020,PAYLOAD,2024-01-25 06:17:15,15.08853393,0.0001575,53.2193,10.6714,84.2907,275.8264,9.5143e-05,1.227e-05,0.0,0 STARLINK-4020,1 52703U 22053AZ  24025.26198142  .00001227  00000-0  95143-4 0  9993,2 52703  53.2193  10.6714 0001575  84.2907 275.8264 15.08853393 93123,6917.839,95.437,540.794,538.615,0.0
52703.0,STARLINK-4020,PAYLOAD,2024-01-26 02:57:17,15.08837536,0.0001758,53.2201,6.8032,77.7357,282.3832,-1.4836e-05,-5.24e-06,0.0,0 STARLINK-4020,1 52703U 22053AZ  24026.12311582 -.00000524  00000-0 -14836-4 0  9995,2 52703  53.2201   6.8032 0001758  77.7357 282.3832 15.08837536 94106,6917.888,95.438,540.969,538.537,0.0
52703.0,STARLINK-4020,PAYLOAD,2024-01-26 06:08:03,15.0883614,0.0001603,53.2196,6.2105,77.273,282.8441,-7.2062e-06,-4.03e-06,0.0,0 STARLINK-4020,1 52703U 22053AZ  24026.25559730 -.00000403  00000-0 -72062-5 0  9990,2 52703  53.2196   6.2105 0001603  77.2730 282.8441 15.08836140 93271,6917.892,95.438,540.866,538.648,0.0
52703.0,STARLINK-4020,PAYLOAD,2024-01-27 07:34:13,15.08847192,0.0001972,53.2212,1.4445,61.4958,298.6232,3.4443e-05,2.6e-06,0.0,0 STARLINK-4020,1 52703U 22053AZ  24027.31543170  .00000260  00000-0  34443-4 0  9998,2 52703  53.2212   1.4445 0001972  61.4958 298.6232 15.08847192 94284,6917.858,95.437,541.088,538.359,0.0
52703.0,STARLINK-4020,PAYLOAD,2024-01-28 04:14:14,15.08836257,0.000205,53.2212,357.5783,63.4907,296.6295,9.6408e-05,1.246e-05,0.0,0 STARLINK-4020,1 52703U 22053AZ  24028.17655773  .00001246  00000-0  96408-4 0  9990,2 52703  53.2212 357.5783 0002050  63.4907 296.6295 15.08836257 94410,6917.892,95.438,541.175,538.339,0.0
52703.0,STARLINK-4020,PAYLOAD,2024-01-29 04:05:01,15.08844965,0.0001512,53.2194,353.1211,87.4023,272.7142,1.0255e-06,-2.72e-06,0.0,0 STARLINK-4020,1 52703U 22053AZ  24029.17015508 -.00000272  00000-0  10255-5 0  9993,2 52703  53.2194 353.1211 0001512  87.4023 272.7142 15.08844965 93717,6917.865,95.437,540.776,538.684,0.0
52703.0,STARLINK-4020,PAYLOAD,2024-01-30 03:55:47,15.0884755,0.000174,53.2202,348.6712,108.1737,251.9445,0.00011753,1.583e-05,0.0,0 STARLINK-4020,1 52703U 22053AZ  24030.16374771  .00001583  00000-0  11753-3 0  9991,2 52703  53.2202 348.6712 0001740 108.1737 251.9445 15.08847550 94717,6917.857,95.437,540.926,538.519,0.0
52703.0,STARLINK-4020,PAYLOAD,2024-01-30 21:25:03,15.08836316,0.0001588,53.22,345.3985,114.9824,245.1333,-2.1182e-05,-6.25e-06,0.0,0 STARLINK-4020,1 52703U 22053AZ  24030.89239893 -.00000625  00000-0 -21182-4 0  9992,2 52703  53.2200 345.3985 0001588 114.9824 245.1333 15.08836316 93979,6917.892,95.438,540.855,538.658,0.0
52703.0,STARLINK-4020,PAYLOAD,2024-01-31 03:46:35,15.08839278,0.0001676,53.2198,344.2091,114.2639,245.8528,4.1839e-06,-2.21e-06,0.0,0 STARLINK-4020,1 52703U 22053AZ  24031.15735672 -.00000221  00000-0  41839-5 0  9991,2 52703  53.2198 344.2091 0001676 114.2639 245.8528 15.08839278 94868,6917.883,95.438,540.907,538.588,0.0
52703.0,STARLINK-4020,PAYLOAD,2024-01-31 21:15:50,15.08840846,0.0001679,53.2194,340.9387,114.0254,246.0914,-9.6049e-05,-1.816e-05,0.0,0 STARLINK-4020,1 52703U 22053AZ  24031.88600128 -.00001816  00000-0 -96049-4 0  9992,2 52703  53.2194 340.9387 0001679 114.0254 246.0914 15.08840846 94123,6917.878,95.438,540.904,538.581,0.0
52703.0,STARLINK-4020,PAYLOAD,2024-02-01 02:01:59,15.08840923,0.0001681,53.2196,340.0458,115.3287,244.7879,-8.2837e-05,-1.606e-05,0.0,0 STARLINK-4020,1 52703U 22053AZ  24032.08472059 -.00001606  00000-0 -82837-4 0  9992,2 52703  53.2196 340.0458 0001681 115.3287 244.7879 15.08840923 94152,6917.878,95.437,540.905,538.58,0.0
52703.0,STARLINK-4020,PAYLOAD,2024-02-02 03:28:10,15.0883852,0.000135,53.219,335.2894,99.0147,261.0998,0.00010346,1.359e-05,0.0,0 STARLINK-4020,1 52703U 22053AZ  24033.14456083  .00001359  00000-0  10346-3 0  9997,2 52703  53.2190 335.2894 0001350  99.0147 261.0998 15.08838520 95168,6917.885,95.438,540.684,538.816,0.0
52703.0,STARLINK-4020,PAYLOAD,2024-02-03 03:18:57,15.08836421,0.0001732,53.2199,330.8316,74.7278,285.3906,9.4652e-05,1.219e-05,0.0,0 STARLINK-4020,1 52703U 22053AZ  24034.13816753  .00001219  00000-0  94652-4 0  9999,2 52703  53.2199 330.8316 0001732  74.7278 285.3906 15.08836421 95319,6917.891,95.438,540.955,538.558,0.0
52703.0,STARLINK-4020,PAYLOAD,2024-02-03 04:54:20,15.08838211,0.0001695,53.2198,330.5333,77.7653,282.3529,9.7194e-05,1.259e-05,0.0,0 STARLINK-4020,1 52703U 22053AZ  24034.20440658  .00001259  00000-0  97194-4 0  9992,2 52703  53.2198 330.5333 0001695  77.7653 282.3529 15.08838211 94475,6917.886,95.438,540.923,538.578,0.0
52703.0,STARLINK-4020,PAYLOAD,2024-02-04 03:09:45,15.08778599,0.0001936,53.22,326.3702,79.9459,280.1752,0.00097151,0.00015182,0.0,0 STARLINK-4020,1 52703U 22053AZ  24035.13177488  .00015182  00000-0  97151-3 0  9995,2 52703  53.2200 326.3702 0001936  79.9459 280.1752 15.08778599 95464,6918.068,95.441,541.272,538.594,0.0
52703.0,STARLINK-4020,PAYLOAD,2024-02-04 04:45:07,15.08842246,0.0001387,53.2195,326.0675,86.8038,273.3113,0.00021824,3.187e-05,0.0,0 STARLINK-4020,1 52703U 22053AZ  24035.19799945  .00003187  00000-0  21824-3 0  9995,2 52703  53.2195 326.0675 0001387  86.8038 273.3113 15.08842246 95470,6917.874,95.437,540.698,538.779,0.0
52703.0,STARLINK-4020,PAYLOAD,2024-02-05 12:32:50,15.08838092,0.0001456,53.2192,320.1204,92.8178,267.2981,3.1872e-05,2.19e-06,0.0,0 STARLINK-4020,1 52703U 22053AZ  24036.52280329  .00000219  00000-0  31872-4 0  9992,2 52703  53.2192 320.1204 0001456  92.8178 267.2981 15.08838092 94826,6917.886,95.438,540.758,538.744,0.0
52703.0,STARLINK-4020,PAYLOAD,2024-02-05 22:05:09,15.08842782,0.0001637,53.2192,318.3337,94.7055,265.4124,-2.8828e-05,-7.47e-06,0.0,0 STARLINK-4020,1 52703U 22053AZ  24036.92024306 -.00000747  00000-0 -28828-4 0  9992,2 52703  53.2192 318.3337 0001637  94.7055 265.4124 15.08842782 94884,6917.872,95.437,540.869,538.604,0.0
52703.0,STARLINK-4020,PAYLOAD,2024-02-06 01:15:55,15.08845089,0.0001757,53.2194,317.7397,88.999,271.1203,-1.483e-05,-5.24e-06,0.0,0 STARLINK-4020,1 52703U 22053AZ  24037.05272122 -.00000524  00000-0 -14830-4 0  9999,2 52703  53.2194 317.7397 0001757  88.9990 271.1203 15.08845089 94909,6917.865,95.437,540.945,538.514,0.0
